[
  {
    "name": "ONEWEB-0578",
    "noradId": "56067",
    "line1": "1 56067U 23043X   26168.63249846  .00000089  00000+0  18372-3 0  9991",
    "line2": "2 56067  87.9259 243.8840 0002364  96.7465 263.3938 13.21824702158296"
  },
  {
    "name": "ONEWEB-0579",
    "noradId": "56068",
    "line1": "1 56068U 23043Y   26168.62409725  .00000069  00000+0  13448-3 0  9992",
    "line2": "2 56068  87.9262 243.8825 0001788 102.0298 258.1037 13.21826443158306"
  },
  {
    "name": "ONEWEB-0581",
    "noradId": "56069",
    "line1": "1 56069U 23043Z   26168.60623849  .00000064  00000+0  13400-3 0  9999",
    "line2": "2 56069  87.9098 228.7012 0002032  81.2958 278.8403 13.16592886159018"
  },
  {
    "name": "ONEWEB-0609",
    "noradId": "56070",
    "line1": "1 56070U 23043AA  26168.78983768  .00000037  00000+0  64381-4 0  9994",
    "line2": "2 56070  87.9003 259.0915 0002020 102.4277 257.7079 13.15548669156518"
  },
  {
    "name": "ONEWEB-0613",
    "noradId": "56071",
    "line1": "1 56071U 23043AB  26168.78745050  .00000155  00000+0  37729-3 0  9991",
    "line2": "2 56071  87.9003 259.1043 0001796 106.5137 253.6191 13.15549835156517"
  },
  {
    "name": "ONEWEB-0630",
    "noradId": "56072",
    "line1": "1 56072U 23043AC  26168.78270232  .00000174  00000+0  42842-3 0  9990",
    "line2": "2 56072  87.9006 259.0768 0001783 104.8496 255.2832 13.15546713156500"
  },
  {
    "name": "ONEWEB-0632",
    "noradId": "56073",
    "line1": "1 56073U 23043AD  26168.77796048  .00000180  00000+0  44463-3 0  9996",
    "line2": "2 56073  87.9004 259.0956 0001902  95.2411 264.8937 13.15548607156507"
  },
  {
    "name": "ONEWEB-0633",
    "noradId": "56074",
    "line1": "1 56074U 23043AE  26168.77161176  .00000146  00000+0  35497-3 0  9994",
    "line2": "2 56074  87.9010 259.0724 0001845 112.9163 247.2162 13.15547307156483"
  },
  {
    "name": "ONEWEB-0634",
    "noradId": "56075",
    "line1": "1 56075U 23043AF  26168.75736131 -.00000023  00000+0 -94607-4 0  9997",
    "line2": "2 56075  87.9003 259.1156 0002320 103.4705 256.6684 13.15548544156478"
  },
  {
    "name": "ONEWEB-0635",
    "noradId": "56076",
    "line1": "1 56076U 23043AG  26168.75258840 -.00000285  00000+0 -79231-3 0  9999",
    "line2": "2 56076  87.9010 259.0790 0001956  92.7306 267.4049 13.15548130156501"
  },
  {
    "name": "ONEWEB-0636",
    "noradId": "56077",
    "line1": "1 56077U 23043AH  26168.82073792 -.00000099  00000+0 -29608-3 0  9995",
    "line2": "2 56077  87.9008 259.0718 0001989  94.5077 265.6280 13.15549532156492"
  },
  {
    "name": "ONEWEB-0637",
    "noradId": "56078",
    "line1": "1 56078U 23043AJ  26168.81440484 -.00000119  00000+0 -35022-3 0  9991",
    "line2": "2 56078  87.9002 259.0896 0002261  95.7284 264.4105 13.15549182156518"
  },
  {
    "name": "ONEWEB-0647",
    "noradId": "56079",
    "line1": "1 56079U 23043AK  26168.73359771 -.00000115  00000+0 -33935-3 0  9998",
    "line2": "2 56079  87.9004 259.1181 0001824  97.9288 262.2050 13.15549200156494"
  },
  {
    "name": "ONEWEB-0651",
    "noradId": "56080",
    "line1": "1 56080U 23043AL  26168.95701244  .00000089  00000+0  20206-3 0  9995",
    "line2": "2 56080  87.9002 259.0671 0002083  93.9552 266.1816 13.15549447157728"
  },
  {
    "name": "ONEWEB-0718",
    "noradId": "56081",
    "line1": "1 56081U 23043AM  26168.80013129 -.00000113  00000+0 -33301-3 0  9998",
    "line2": "2 56081  87.9003 259.0793 0002433 109.9234 250.2159 13.15545598156512"
  },
  {
    "name": "ONEWEB-0561",
    "noradId": "56710",
    "line1": "1 56710U 23068A   26168.80373291  .00000191  00000+0  43814-3 0  9997",
    "line2": "2 56710  87.9210 274.3186 0001665  95.9418 264.1905 13.20772315149588"
  },
  {
    "name": "ONEWEB-0668",
    "noradId": "56711",
    "line1": "1 56711U 23068B   26168.65691384 -.00000041  00000+0 -14020-3 0  9990",
    "line2": "2 56711  87.9096 228.6791 0002606  98.3786 261.7641 13.16594259151842"
  },
  {
    "name": "ONEWEB-0676",
    "noradId": "56712",
    "line1": "1 56712U 23068C   26168.66482028  .00000036  00000+0  61688-4 0  9990",
    "line2": "2 56712  87.9097 228.6837 0002007  88.4090 271.7271 13.16593004151766"
  },
  {
    "name": "ONEWEB-0677",
    "noradId": "56713",
    "line1": "1 56713U 23068D   26168.79194068  .00000086  00000+0  17985-3 0  9994",
    "line2": "2 56713  87.9196 274.3141 0002247  91.7595 268.3795 13.20770182149888"
  },
  {
    "name": "ONEWEB-0678",
    "noradId": "56714",
    "line1": "1 56714U 23068E   26168.76845091  .00000032  00000+0  51663-4 0  9994",
    "line2": "2 56714  87.9010 259.0776 0001719 102.6022 257.5300 13.15548374149363"
  },
  {
    "name": "ONEWEB-0679",
    "noradId": "56715",
    "line1": "1 56715U 23068F   26168.62366136  .00000092  00000+0  20575-3 0  9991",
    "line2": "2 56715  87.9097 228.6833 0002550  89.7054 270.4369 13.16594694151784"
  },
  {
    "name": "ONEWEB-0680",
    "noradId": "56716",
    "line1": "1 56716U 23068G   26168.62575697  .00000089  00000+0  18431-3 0  9990",
    "line2": "2 56716  87.9263 243.8838 0002648  97.0272 263.1164 13.21828092151157"
  },
  {
    "name": "ONEWEB-0681",
    "noradId": "56717",
    "line1": "1 56717U 23068H   26168.75780809  .00000043  00000+0  71795-4 0  9991",
    "line2": "2 56717  87.9256 243.8584 0001963  70.7946 289.3401 13.21826978151169"
  },
  {
    "name": "ONEWEB-0682",
    "noradId": "56718",
    "line1": "1 56718U 23068J   26168.79222560  .00000050  00000+0  98312-4 0  9993",
    "line2": "2 56718  87.9011 259.0734 0002518  98.2387 261.9029 13.15548714149538"
  },
  {
    "name": "ONEWEB-0683",
    "noradId": "56719",
    "line1": "1 56719U 23068K   26168.81599099 -.00000158  00000+0 -45270-3 0  9996",
    "line2": "2 56719  87.9012 259.0684 0002277 102.5117 257.6268 13.15549050149504"
  },
  {
    "name": "ONEWEB-0684",
    "noradId": "56720",
    "line1": "1 56720U 23068L   26168.74785473 -.00000095  00000+0 -28738-3 0  9993",
    "line2": "2 56720  87.9010 259.0720 0001572 142.8172 217.3067 13.15548436149327"
  },
  {
    "name": "ONEWEB-0686",
    "noradId": "56721",
    "line1": "1 56721U 23068M   26168.66008025 -.00000012  00000+0 -65414-4 0  9998",
    "line2": "2 56721  87.9088 228.6994 0002260 105.7523 254.3858 13.16594743151775"
  },
  {
    "name": "ONEWEB-0694",
    "noradId": "56722",
    "line1": "1 56722U 23068N   26168.66641026 -.00000021  00000+0 -89343-4 0  9990",
    "line2": "2 56722  87.9108 228.6627 0002556  97.9608 262.1813 13.16594533151838"
  },
  {
    "name": "ONEWEB-0696",
    "noradId": "56723",
    "line1": "1 56723U 23068P   26168.78111859  .00000115  00000+0  27104-3 0  9998",
    "line2": "2 56723  87.9004 259.1037 0001504 103.5995 256.5303 13.15546473149447"
  },
  {
    "name": "ONEWEB-0703",
    "noradId": "56724",
    "line1": "1 56724U 23068Q   26168.79063796  .00000120  00000+0  28510-3 0  9994",
    "line2": "2 56724  87.9003 259.0827 0001107  90.0272 270.0986 13.15548437149338"
  }
]