OBJECT_NAME,OBJECT_ID,EPOCH,MEAN_MOTION,ECCENTRICITY,INCLINATION,RA_OF_ASC_NODE,ARG_OF_PERICENTER,MEAN_ANOMALY,EPHEMERIS_TYPE,CLASSIFICATION_TYPE,NORAD_CAT_ID,ELEMENT_SET_NO,REV_AT_EPOCH,BSTAR,MEAN_MOTION_DOT,MEAN_MOTION_DDOT
ONEWEB-0578,2023-043X,2026-06-17T15:10:47.866944,13.21824702,.00023645,87.9259,243.8840,96.7465,263.3938,0,U,56067,999,15829,.18372052E-3,.89E-6,0
ONEWEB-0579,2023-043Y,2026-06-17T14:58:42.002400,13.21826443,.00017886,87.9262,243.8825,102.0298,258.1037,0,U,56068,999,15830,.13448039E-3,.69E-6,0
ONEWEB-0581,2023-043Z,2026-06-17T14:32:59.005536,13.16592886,.00020326,87.9098,228.7012,81.2958,278.8403,0,U,56069,999,15901,.13400179E-3,.64E-6,0
ONEWEB-0609,2023-043AA,2026-06-17T18:57:21.975552,13.15548669,.000202,87.9003,259.0915,102.4277,257.7079,0,U,56070,999,15651,.64380602E-4,.37E-6,0
ONEWEB-0613,2023-043AB,2026-06-17T18:53:55.723200,13.15549835,.00017969,87.9003,259.1043,106.5137,253.6191,0,U,56071,999,15651,.37728892E-3,.155E-5,0
ONEWEB-0630,2023-043AC,2026-06-17T18:47:05.480448,13.15546713,.00017837,87.9006,259.0768,104.8496,255.2832,0,U,56072,999,15650,.42842369E-3,.174E-5,0
ONEWEB-0632,2023-043AD,2026-06-17T18:40:15.785472,13.15548607,.00019026,87.9004,259.0956,95.2411,264.8937,0,U,56073,999,15650,.44463018E-3,.18E-5,0
ONEWEB-0633,2023-043AE,2026-06-17T18:31:07.256064,13.15547307,.00018453,87.9010,259.0724,112.9163,247.2162,0,U,56074,999,15648,.35497222E-3,.146E-5,0
ONEWEB-0634,2023-043AF,2026-06-17T18:10:36.017184,13.15548544,.00023208,87.9003,259.1156,103.4705,256.6684,0,U,56075,999,15647,-.94606616E-4,-.23E-6,0
ONEWEB-0635,2023-043AG,2026-06-17T18:03:43.637760,13.15548130,.00019568,87.9010,259.0790,92.7306,267.4049,0,U,56076,999,15650,-.79230634E-3,-.285E-5,0
ONEWEB-0636,2023-043AH,2026-06-17T19:41:51.756288,13.15549532,.00019897,87.9008,259.0718,94.5077,265.6280,0,U,56077,999,15649,-.29608453E-3,-.99E-6,0
ONEWEB-0637,2023-043AJ,2026-06-17T19:32:44.578176,13.15549182,.00022613,87.9002,259.0896,95.7284,264.4105,0,U,56078,999,15651,-.35021596E-3,-.119E-5,0
ONEWEB-0647,2023-043AK,2026-06-17T17:36:22.842144,13.15549200,.00018243,87.9004,259.1181,97.9288,262.2050,0,U,56079,999,15649,-.33935394E-3,-.115E-5,0
ONEWEB-0651,2023-043AL,2026-06-17T22:58:05.874816,13.15549447,.00020832,87.9002,259.0671,93.9552,266.1816,0,U,56080,999,15772,.20205728E-3,.89E-6,0
ONEWEB-0718,2023-043AM,2026-06-17T19:12:11.343456,13.15545598,.00024333,87.9003,259.0793,109.9234,250.2159,0,U,56081,999,15651,-.33300743E-3,-.113E-5,0
ONEWEB-0561,2023-068A,2026-06-17T19:17:22.523424,13.20772315,.00016651,87.9210,274.3186,95.9418,264.1905,0,U,56710,999,14958,.43813917E-3,.191E-5,0
ONEWEB-0668,2023-068B,2026-06-17T15:45:57.355776,13.16594259,.00026069,87.9096,228.6791,98.3786,261.7641,0,U,56711,999,15184,-.14020078E-3,-.41E-6,0
ONEWEB-0676,2023-068C,2026-06-17T15:57:20.472192,13.16593004,.00020079,87.9097,228.6837,88.4090,271.7271,0,U,56712,999,15176,.61688357E-4,.36E-6,0
ONEWEB-0677,2023-068D,2026-06-17T19:00:23.674752,13.20770182,.00022479,87.9196,274.3141,91.7595,268.3795,0,U,56713,999,14988,.17984603E-3,.86E-6,0
ONEWEB-0678,2023-068E,2026-06-17T18:26:34.158624,13.15548374,.00017196,87.9010,259.0776,102.6022,257.5300,0,U,56714,999,14936,.51662715E-4,.32E-6,0
ONEWEB-0679,2023-068F,2026-06-17T14:58:04.341504,13.16594694,.00025503,87.9097,228.6833,89.7054,270.4369,0,U,56715,999,15178,.20574628E-3,.92E-6,0
ONEWEB-0680,2023-068G,2026-06-17T15:01:05.402208,13.21828092,.00026483,87.9263,243.8838,97.0272,263.1164,0,U,56716,999,15115,.18430885E-3,.89E-6,0
ONEWEB-0681,2023-068H,2026-06-17T18:11:14.618976,13.21826978,.00019632,87.9256,243.8584,70.7946,289.3401,0,U,56717,999,15116,.71795049E-4,.43E-6,0
ONEWEB-0682,2023-068J,2026-06-17T19:00:48.291840,13.15548714,.00025188,87.9011,259.0734,98.2387,261.9029,0,U,56718,999,14953,.98311585E-4,.5E-6,0
ONEWEB-0683,2023-068K,2026-06-17T19:35:01.621536,13.15549050,.00022772,87.9012,259.0684,102.5117,257.6268,0,U,56719,999,14950,-.45270385E-3,-.158E-5,0
ONEWEB-0684,2023-068L,2026-06-17T17:56:54.648672,13.15548436,.00015725,87.9010,259.0720,142.8172,217.3067,0,U,56720,999,14932,-.28738493E-3,-.95E-6,0
ONEWEB-0686,2023-068M,2026-06-17T15:50:30.933600,13.16594743,.000226,87.9088,228.6994,105.7523,254.3858,0,U,56721,999,15177,-.65414139E-4,-.12E-6,0
ONEWEB-0694,2023-068N,2026-06-17T15:59:37.846464,13.16594533,.00025566,87.9108,228.6627,97.9608,262.1813,0,U,56722,999,15183,-.89342655E-4,-.21E-6,0
ONEWEB-0696,2023-068P,2026-06-17T18:44:48.646176,13.15546473,.00015041,87.9004,259.1037,103.5995,256.5303,0,U,56723,999,14944,.27103665E-3,.115E-5,0
ONEWEB-0703,2023-068Q,2026-06-17T18:58:31.119744,13.15548437,.00011075,87.9003,259.0827,90.0272,270.0986,0,U,56724,999,14933,.28509667E-3,.12E-5,0
